{"fetched_at":"2026-03-29T02:12:04Z","count":15717,"tles":[{"name":"BEIDOU-3 M24 (C46)","line1":"1 44542U 19061A   26085.55133484 -.00000030  00000+0  00000+0 0  9992","line2":"2 44542  54.3970 185.5149 0008194  15.0686 344.9633  1.86228792 44252","category":"GPS"}]}